{
  "type": "FeatureCollection",
  "name": "Indian_Coastal_Ports_and_Fishing_Harbors",
  "crs": {
    "type": "name",
    "properties": {
      "name": "urn:ogc:def:crs:OGC:1.3:CRS84"
    }
  },
  "features": [
    {
      "type": "Feature",
      "geometry": {
        "type": "Point",
        "coordinates": [
          70.368,
          20.902
        ]
      },
      "properties": {
        "node_id": "HAR-GUJ-01",
        "name": "Veraval Fishing Harbor",
        "vernacular_name": "\u0ab5\u0ac7\u0ab0\u0abe\u0ab5\u0ab3 \u0aab\u0abf\u0ab6\u0abf\u0a82\u0a97 \u0ab9\u0abe\u0ab0\u0acd\u0aac\u0ab0",
        "state": "Gujarat",
        "district": "Gir Somnath",
        "facility_type": "MAJOR_FISHING_HARBOR",
        "berth_capacity": 450,
        "facilities": "Ice Plants, Fuel Bunkering, Slipway, Auction Hall",
        "depth_draft_m": 4.5
      }
    },
    {
      "type": "Feature",
      "geometry": {
        "type": "Point",
        "coordinates": [
          69.595,
          21.638
        ]
      },
      "properties": {
        "node_id": "HAR-GUJ-02",
        "name": "Porbandar Subhash Nagar Harbor",
        "vernacular_name": "\u0aaa\u0acb\u0ab0\u0aac\u0a82\u0aa6\u0ab0 \u0ab9\u0abe\u0ab0\u0acd\u0aac\u0ab0",
        "state": "Gujarat",
        "district": "Porbandar",
        "facility_type": "MAJOR_FISHING_HARBOR",
        "berth_capacity": 320,
        "facilities": "Processing Units, Cold Storage, Boat Yard",
        "depth_draft_m": 5.2
      }
    },
    {
      "type": "Feature",
      "geometry": {
        "type": "Point",
        "coordinates": [
          69.075,
          22.47
        ]
      },
      "properties": {
        "node_id": "HAR-GUJ-03",
        "name": "Okha Port & Fishing Jetty",
        "vernacular_name": "\u0a93\u0a96\u0abe \u0aaa\u0acb\u0ab0\u0acd\u0a9f",
        "state": "Gujarat",
        "district": "Devbhumi Dwarka",
        "facility_type": "PORT_AND_FISHING_JETTY",
        "berth_capacity": 180,
        "facilities": "Naval Anchorage, Passenger Ferry, Diesel Pump",
        "depth_draft_m": 7.0
      }
    },
    {
      "type": "Feature",
      "geometry": {
        "type": "Point",
        "coordinates": [
          70.22,
          23.005
        ]
      },
      "properties": {
        "node_id": "HAR-GUJ-04",
        "name": "Deendayal Port (Kandla)",
        "vernacular_name": "\u0aa6\u0ac0\u0aa8\u0aa6\u0aaf\u0abe\u0ab3 \u0aaa\u0acb\u0ab0\u0acd\u0a9f (\u0a95\u0a82\u0aa1\u0ab2\u0abe)",
        "state": "Gujarat",
        "district": "Kutch",
        "facility_type": "MAJOR_COMMERCIAL_PORT",
        "berth_capacity": 24,
        "facilities": "Deep Draught Cargo, Oil Terminal, Container Berths",
        "depth_draft_m": 14.5
      }
    },
    {
      "type": "Feature",
      "geometry": {
        "type": "Point",
        "coordinates": [
          72.825,
          18.915
        ]
      },
      "properties": {
        "node_id": "HAR-MAH-01",
        "name": "Sassoon Dock Fishing Harbor (Mumbai)",
        "vernacular_name": "\u0938\u0938\u0942\u0928 \u0921\u0949\u0915",
        "state": "Maharashtra",
        "district": "Mumbai City",
        "facility_type": "MAJOR_FISHING_HARBOR",
        "berth_capacity": 600,
        "facilities": "Heritage Auction Hall, Ice Plants, Trawler Docks",
        "depth_draft_m": 4.0
      }
    },
    {
      "type": "Feature",
      "geometry": {
        "type": "Point",
        "coordinates": [
          72.95,
          18.95
        ]
      },
      "properties": {
        "node_id": "HAR-MAH-02",
        "name": "Jawaharlal Nehru Port (JNPT / Nhava Sheva)",
        "vernacular_name": "\u091c\u0935\u093e\u0939\u0930\u0932\u093e\u0932 \u0928\u0947\u0939\u0930\u0942 \u092c\u0902\u0926\u0930\u0917\u093e\u0939",
        "state": "Maharashtra",
        "district": "Raigad",
        "facility_type": "MAJOR_CONTAINER_PORT",
        "berth_capacity": 16,
        "facilities": "Automated Container Terminal, Rail Freight Corridor",
        "depth_draft_m": 15.0
      }
    },
    {
      "type": "Feature",
      "geometry": {
        "type": "Point",
        "coordinates": [
          73.275,
          16.995
        ]
      },
      "properties": {
        "node_id": "HAR-MAH-03",
        "name": "Mirkarwada Fishing Harbor (Ratnagiri)",
        "vernacular_name": "\u092e\u093f\u0930\u094d\u0915\u0930\u0935\u093e\u0921\u093e \u092c\u0902\u0926\u0930",
        "state": "Maharashtra",
        "district": "Ratnagiri",
        "facility_type": "MAJOR_FISHING_HARBOR",
        "berth_capacity": 380,
        "facilities": "Purse-seine Jetty, Export Cold Store, Fuel Pump",
        "depth_draft_m": 4.2
      }
    },
    {
      "type": "Feature",
      "geometry": {
        "type": "Point",
        "coordinates": [
          73.465,
          16.058
        ]
      },
      "properties": {
        "node_id": "HAR-MAH-04",
        "name": "Malvan Dhuriwada Jetty",
        "vernacular_name": "\u092e\u093e\u0932\u0935\u0923 \u0927\u0941\u0930\u0940\u0935\u093e\u0921\u093e \u091c\u0947\u091f\u0940",
        "state": "Maharashtra",
        "district": "Sindhudurg",
        "facility_type": "COASTAL_LANDING_JETTY",
        "berth_capacity": 120,
        "facilities": "Artisanal Landing, Fish Drying Yard",
        "depth_draft_m": 2.8
      }
    },
    {
      "type": "Feature",
      "geometry": {
        "type": "Point",
        "coordinates": [
          73.8,
          15.415
        ]
      },
      "properties": {
        "node_id": "HAR-GOA-01",
        "name": "Mormugao Port & Cutbona Jetty",
        "vernacular_name": "\u092e\u0941\u0930\u0917\u093e\u0935 \u092c\u0902\u0926\u0930",
        "state": "Goa",
        "district": "South Goa",
        "facility_type": "MAJOR_PORT_AND_JETTY",
        "berth_capacity": 250,
        "facilities": "Ore Handling, Trawler Quay, Naval Base",
        "depth_draft_m": 13.0
      }
    },
    {
      "type": "Feature",
      "geometry": {
        "type": "Point",
        "coordinates": [
          74.698,
          13.355
        ]
      },
      "properties": {
        "node_id": "HAR-KAR-01",
        "name": "Malpe Fishing Harbor",
        "vernacular_name": "\u0cae\u0cb2\u0ccd\u0caa\u0cc6 \u0cac\u0c82\u0ca6\u0cb0\u0cc1",
        "state": "Karnataka",
        "district": "Udupi",
        "facility_type": "MAJOR_FISHING_HARBOR",
        "berth_capacity": 750,
        "facilities": "Modern Slipways, Processing Plants, Marine Police Station",
        "depth_draft_m": 5.0
      }
    },
    {
      "type": "Feature",
      "geometry": {
        "type": "Point",
        "coordinates": [
          74.832,
          12.855
        ]
      },
      "properties": {
        "node_id": "HAR-KAR-02",
        "name": "New Mangalore Port & Old Bunder",
        "vernacular_name": "\u0ca8\u0cb5 \u0cae\u0c82\u0c97\u0cb3\u0cc2\u0cb0\u0cc1 \u0cac\u0c82\u0ca6\u0cb0\u0cc1",
        "state": "Karnataka",
        "district": "Dakshina Kannada",
        "facility_type": "MAJOR_PORT_AND_FISHING_HARBOR",
        "berth_capacity": 400,
        "facilities": "Bulk Cargo, LPG Terminal, Deep Sea Trawler Quay",
        "depth_draft_m": 14.0
      }
    },
    {
      "type": "Feature",
      "geometry": {
        "type": "Point",
        "coordinates": [
          76.262,
          9.942
        ]
      },
      "properties": {
        "node_id": "HAR-KER-01",
        "name": "Cochin Fishing Harbor (Thoppumpady)",
        "vernacular_name": "\u0d15\u0d4a\u0d1a\u0d4d\u0d1a\u0d3f \u0d2b\u0d3f\u0d37\u0d3f\u0d02\u0d17\u0d4d \u0d39\u0d3e\u0d7c\u0d2c\u0d7c",
        "state": "Kerala",
        "district": "Ernakulam",
        "facility_type": "MAJOR_FISHING_HARBOR",
        "berth_capacity": 800,
        "facilities": "Modern Auction Sheds, Marine Products Export Inspection, Fuel Bunkering",
        "depth_draft_m": 5.5
      }
    },
    {
      "type": "Feature",
      "geometry": {
        "type": "Point",
        "coordinates": [
          76.176,
          10.182
        ]
      },
      "properties": {
        "node_id": "HAR-KER-02",
        "name": "Munambam Harbor",
        "vernacular_name": "\u0d2e\u0d41\u0d28\u0d2e\u0d4d\u0d2a\u0d02 \u0d39\u0d3e\u0d7c\u0d2c\u0d7c",
        "state": "Kerala",
        "district": "Ernakulam",
        "facility_type": "MAJOR_FISHING_HARBOR",
        "berth_capacity": 550,
        "facilities": "Deep Sea Gillnet Wharf, Ice Plants",
        "depth_draft_m": 4.8
      }
    },
    {
      "type": "Feature",
      "geometry": {
        "type": "Point",
        "coordinates": [
          76.538,
          8.938
        ]
      },
      "properties": {
        "node_id": "HAR-KER-03",
        "name": "Neendakara Trawling Harbor",
        "vernacular_name": "\u0d28\u0d40\u0d23\u0d4d\u0d1f\u0d15\u0d30 \u0d2b\u0d3f\u0d37\u0d3f\u0d02\u0d17\u0d4d \u0d39\u0d3e\u0d7c\u0d2c\u0d7c",
        "state": "Kerala",
        "district": "Kollam",
        "facility_type": "MAJOR_TRAWLING_HARBOR",
        "berth_capacity": 650,
        "facilities": "Ashtamudi Estuary Lock, Slipway, Auction Hall",
        "depth_draft_m": 4.5
      }
    },
    {
      "type": "Feature",
      "geometry": {
        "type": "Point",
        "coordinates": [
          76.988,
          8.375
        ]
      },
      "properties": {
        "node_id": "HAR-KER-04",
        "name": "Vizhinjam International Seaport & Harbor",
        "vernacular_name": "\u0d35\u0d3f\u0d34\u0d3f\u0d1e\u0d4d\u0d1e\u0d02 \u0d05\u0d28\u0d4d\u0d24\u0d3e\u0d30\u0d3e\u0d37\u0d4d\u0d1f\u0d4d\u0d30 \u0d24\u0d41\u0d31\u0d2e\u0d41\u0d16\u0d02",
        "state": "Kerala",
        "district": "Thiruvananthapuram",
        "facility_type": "DEEPWATER_TRANSSHIPMENT_PORT",
        "berth_capacity": 300,
        "facilities": "Deep Draft Transshipment (20m), Traditional Fishing Basin",
        "depth_draft_m": 20.0
      }
    },
    {
      "type": "Feature",
      "geometry": {
        "type": "Point",
        "coordinates": [
          80.298,
          13.128
        ]
      },
      "properties": {
        "node_id": "HAR-TAM-01",
        "name": "Kasimedu Fishing Harbor (Chennai)",
        "vernacular_name": "\u0b95\u0bbe\u0b9a\u0bbf\u0bae\u0bc7\u0b9f\u0bc1 \u0bae\u0bc0\u0ba9\u0bcd\u0baa\u0bbf\u0b9f\u0bbf \u0ba4\u0bc1\u0bb1\u0bc8\u0bae\u0bc1\u0b95\u0bae\u0bcd",
        "state": "Tamil Nadu",
        "district": "Chennai",
        "facility_type": "MAJOR_FISHING_HARBOR",
        "berth_capacity": 900,
        "facilities": "Trawler Wharf, Modern Hygiene Auction Complex, Repair Yard",
        "depth_draft_m": 5.0
      }
    },
    {
      "type": "Feature",
      "geometry": {
        "type": "Point",
        "coordinates": [
          78.185,
          8.75
        ]
      },
      "properties": {
        "node_id": "HAR-TAM-02",
        "name": "V.O. Chidambaranar Port (Thoothukudi)",
        "vernacular_name": "\u0ba4\u0bc2\u0ba4\u0bcd\u0ba4\u0bc1\u0b95\u0bcd\u0b95\u0bc1\u0b9f\u0bbf \u0bb5.\u0b89.\u0b9a\u0bbf \u0ba4\u0bc1\u0bb1\u0bc8\u0bae\u0bc1\u0b95\u0bae\u0bcd",
        "state": "Tamil Nadu",
        "district": "Thoothukudi",
        "facility_type": "MAJOR_PORT_AND_FISHING_HARBOR",
        "berth_capacity": 450,
        "facilities": "Container Wharves, Gulf of Mannar Fishing Quay",
        "depth_draft_m": 14.2
      }
    },
    {
      "type": "Feature",
      "geometry": {
        "type": "Point",
        "coordinates": [
          79.315,
          9.285
        ]
      },
      "properties": {
        "node_id": "HAR-TAM-03",
        "name": "Rameswaram Fishing Jetty",
        "vernacular_name": "\u0bb0\u0bbe\u0bae\u0bc7\u0bb8\u0bcd\u0bb5\u0bb0\u0bae\u0bcd \u0bae\u0bc0\u0ba9\u0bcd\u0baa\u0bbf\u0b9f\u0bbf \u0ba4\u0bb3\u0bae\u0bcd",
        "state": "Tamil Nadu",
        "district": "Ramanathapuram",
        "facility_type": "PALK_STRAIT_FISHING_JETTY",
        "berth_capacity": 600,
        "facilities": "Artisanal Craft Basin, ICG Monitoring Gate",
        "depth_draft_m": 3.0
      }
    },
    {
      "type": "Feature",
      "geometry": {
        "type": "Point",
        "coordinates": [
          83.298,
          17.698
        ]
      },
      "properties": {
        "node_id": "HAR-AND-01",
        "name": "Visakhapatnam Fishing Harbor",
        "vernacular_name": "\u0c35\u0c3f\u0c36\u0c3e\u0c16\u0c2a\u0c1f\u0c4d\u0c28\u0c02 \u0c2b\u0c3f\u0c37\u0c3f\u0c02\u0c17\u0c4d \u0c39\u0c3e\u0c30\u0c4d\u0c2c\u0c30\u0c4d",
        "state": "Andhra Pradesh",
        "district": "Visakhapatnam",
        "facility_type": "MAJOR_FISHING_HARBOR",
        "berth_capacity": 700,
        "facilities": "Tuna Longliner Jetty, Processing Units, Dry Dock",
        "depth_draft_m": 6.0
      }
    },
    {
      "type": "Feature",
      "geometry": {
        "type": "Point",
        "coordinates": [
          82.265,
          16.985
        ]
      },
      "properties": {
        "node_id": "HAR-AND-02",
        "name": "Kakinada Deep Water Port & Harbor",
        "vernacular_name": "\u0c15\u0c3e\u0c15\u0c3f\u0c28\u0c3e\u0c21 \u0c2a\u0c4b\u0c30\u0c4d\u0c1f\u0c4d",
        "state": "Andhra Pradesh",
        "district": "Kakinada",
        "facility_type": "PORT_AND_FISHING_HARBOR",
        "berth_capacity": 350,
        "facilities": "Commercial Deepwater Quay, Mechanized Trawler Basin",
        "depth_draft_m": 12.0
      }
    },
    {
      "type": "Feature",
      "geometry": {
        "type": "Point",
        "coordinates": [
          86.685,
          20.298
        ]
      },
      "properties": {
        "node_id": "HAR-ODI-01",
        "name": "Paradip Fishing Harbor",
        "vernacular_name": "\u0b2a\u0b3e\u0b30\u0b3e\u0b26\u0b40\u0b2a \u0b2b\u0b3f\u0b38\u0b3f\u0b02 \u0b39\u0b3e\u0b30\u0b4d\u0b2c\u0b30",
        "state": "Odisha",
        "district": "Jagatsinghpur",
        "facility_type": "MAJOR_FISHING_HARBOR",
        "berth_capacity": 500,
        "facilities": "Mahanadi Estuary Quay, Cold Storage, Ice Factory",
        "depth_draft_m": 5.0
      }
    },
    {
      "type": "Feature",
      "geometry": {
        "type": "Point",
        "coordinates": [
          87.565,
          21.63
        ]
      },
      "properties": {
        "node_id": "HAR-WBE-01",
        "name": "Sankarpur / Digha Fishing Harbor",
        "vernacular_name": "\u09b6\u0999\u09cd\u0995\u09b0\u09aa\u09c1\u09b0 \u09a6\u09bf\u0998\u09be \u09ae\u09ce\u09b8\u09cd\u09af \u09ac\u09a8\u09cd\u09a6\u09b0",
        "state": "West Bengal",
        "district": "Purba Medinipur",
        "facility_type": "MAJOR_FISHING_HARBOR",
        "berth_capacity": 400,
        "facilities": "Hilsa Auction Yard, Slipway",
        "depth_draft_m": 3.8
      }
    }
  ]
}