{
  "type": "FeatureCollection",
  "name": "Indian_Coastal_Marine_Weather_Grid",
  "crs": {
    "type": "name",
    "properties": {
      "name": "urn:ogc:def:crs:OGC:1.3:CRS84"
    }
  },
  "features": [
    {
      "type": "Feature",
      "geometry": {
        "type": "Point",
        "coordinates": [
          68.6,
          23.2
        ]
      },
      "properties": {
        "station_id": "WX-GUJ-JAKHAU",
        "station_name": "Jakhau (North Gujarat / Kutch)",
        "coastal_sector": "Gulf of Kutch",
        "significant_wave_height_m": 1.5,
        "swell_height_m": 1.2,
        "swell_period_s": 6.8,
        "swell_direction_deg": 239,
        "wind_speed_knots": 16.5,
        "wind_gust_knots": 22.0,
        "wind_direction_deg": 235,
        "mslp_hpa": 1008.2,
        "air_temp_c": 29.5,
        "sea_state": "Moderate",
        "warning_level": "GREEN",
        "advisory": "Normal coastal operations. Exercise caution near shallow sandbanks."
      }
    },
    {
      "type": "Feature",
      "geometry": {
        "type": "Point",
        "coordinates": [
          70.2,
          20.8
        ]
      },
      "properties": {
        "station_id": "WX-GUJ-VERAVAL",
        "station_name": "Veraval Offshore Station",
        "coastal_sector": "Saurashtra Coast",
        "significant_wave_height_m": 2.1,
        "swell_height_m": 1.1,
        "swell_period_s": 7.65,
        "swell_direction_deg": 238,
        "wind_speed_knots": 14.0,
        "wind_gust_knots": 18.5,
        "wind_direction_deg": 225,
        "mslp_hpa": 1009.0,
        "air_temp_c": 28.8,
        "sea_state": "Moderate",
        "warning_level": "GREEN",
        "advisory": "Favorable sea state for commercial pelagic fishing."
      }
    },
    {
      "type": "Feature",
      "geometry": {
        "type": "Point",
        "coordinates": [
          71.35,
          19.25
        ]
      },
      "properties": {
        "station_id": "WX-MAH-MUMBAI",
        "station_name": "Mumbai High Offshore Platform",
        "coastal_sector": "Konkan Coast",
        "significant_wave_height_m": 1.7,
        "swell_height_m": 1.3,
        "swell_period_s": 8.5,
        "swell_direction_deg": 245,
        "wind_speed_knots": 15.8,
        "wind_gust_knots": 21.0,
        "wind_direction_deg": 240,
        "mslp_hpa": 1009.5,
        "air_temp_c": 29.2,
        "sea_state": "Moderate",
        "warning_level": "GREEN",
        "advisory": "Standard offshore vessel routing operational."
      }
    },
    {
      "type": "Feature",
      "geometry": {
        "type": "Point",
        "coordinates": [
          73.65,
          15.4
        ]
      },
      "properties": {
        "station_id": "WX-GOA-PANJIM",
        "station_name": "Mormugao Offshore Station",
        "coastal_sector": "Goa Coast",
        "significant_wave_height_m": 1.6,
        "swell_height_m": 1.3,
        "swell_period_s": 9.0,
        "swell_direction_deg": 230,
        "wind_speed_knots": 14.5,
        "wind_gust_knots": 19.0,
        "wind_direction_deg": 220,
        "mslp_hpa": 1010.2,
        "air_temp_c": 28.5,
        "sea_state": "Moderate",
        "warning_level": "GREEN",
        "advisory": "Calm coastal conditions."
      }
    },
    {
      "type": "Feature",
      "geometry": {
        "type": "Point",
        "coordinates": [
          75.9,
          9.9
        ]
      },
      "properties": {
        "station_id": "WX-KER-KOCHI",
        "station_name": "Kochi Harbor Channel Station",
        "coastal_sector": "Malabar Coast",
        "significant_wave_height_m": 2.2,
        "swell_height_m": 1.9,
        "swell_period_s": 12.5,
        "swell_direction_deg": 215,
        "wind_speed_knots": 19.5,
        "wind_gust_knots": 26.0,
        "wind_direction_deg": 210,
        "mslp_hpa": 1008.8,
        "air_temp_c": 27.8,
        "sea_state": "Rough",
        "warning_level": "YELLOW",
        "advisory": "High swell surges observed. Small motorized country craft advised to exercise extreme caution."
      }
    },
    {
      "type": "Feature",
      "geometry": {
        "type": "Point",
        "coordinates": [
          76.9,
          8.2
        ]
      },
      "properties": {
        "station_id": "WX-KER-VIZHINJAM",
        "station_name": "Vizhinjam / Kanyakumari Trijunction",
        "coastal_sector": "Laccadive Sea",
        "significant_wave_height_m": 2.4,
        "swell_height_m": 2.1,
        "swell_period_s": 13.0,
        "swell_direction_deg": 205,
        "wind_speed_knots": 21.0,
        "wind_gust_knots": 28.0,
        "wind_direction_deg": 200,
        "mslp_hpa": 1008.0,
        "air_temp_c": 28.0,
        "sea_state": "Rough",
        "warning_level": "YELLOW",
        "advisory": "Cross-sea conditions in southern maritime corridor."
      }
    },
    {
      "type": "Feature",
      "geometry": {
        "type": "Point",
        "coordinates": [
          79.4,
          9.3
        ]
      },
      "properties": {
        "station_id": "WX-TAM-RAMESWARAM",
        "station_name": "Palk Strait Marine Station",
        "coastal_sector": "Palk Bay",
        "significant_wave_height_m": 0.9,
        "swell_height_m": 0.6,
        "swell_period_s": 6.0,
        "swell_direction_deg": 130,
        "wind_speed_knots": 11.0,
        "wind_gust_knots": 14.5,
        "wind_direction_deg": 125,
        "mslp_hpa": 1011.0,
        "air_temp_c": 30.2,
        "sea_state": "Slight",
        "warning_level": "GREEN",
        "advisory": "Sheltered waters. Maintain strict compliance with IMBL geofence."
      }
    },
    {
      "type": "Feature",
      "geometry": {
        "type": "Point",
        "coordinates": [
          80.4,
          13.15
        ]
      },
      "properties": {
        "station_id": "WX-TAM-CHENNAI",
        "station_name": "Chennai Port Roadstead",
        "coastal_sector": "Coromandel Coast",
        "significant_wave_height_m": 1.3,
        "swell_height_m": 1.0,
        "swell_period_s": 7.5,
        "swell_direction_deg": 145,
        "wind_speed_knots": 13.2,
        "wind_gust_knots": 17.0,
        "wind_direction_deg": 140,
        "mslp_hpa": 1010.5,
        "air_temp_c": 29.8,
        "sea_state": "Moderate",
        "warning_level": "GREEN",
        "advisory": "Normal commercial fishing conditions."
      }
    },
    {
      "type": "Feature",
      "geometry": {
        "type": "Point",
        "coordinates": [
          83.5,
          17.6
        ]
      },
      "properties": {
        "station_id": "WX-AND-VIZAG",
        "station_name": "Visakhapatnam Deep Water Station",
        "coastal_sector": "Northern Circars",
        "significant_wave_height_m": 1.6,
        "swell_height_m": 1.3,
        "swell_period_s": 8.0,
        "swell_direction_deg": 160,
        "wind_speed_knots": 15.0,
        "wind_gust_knots": 20.0,
        "wind_direction_deg": 155,
        "mslp_hpa": 1009.2,
        "air_temp_c": 29.4,
        "sea_state": "Moderate",
        "warning_level": "GREEN",
        "advisory": "Good visibility, gentle to moderate swell."
      }
    },
    {
      "type": "Feature",
      "geometry": {
        "type": "Point",
        "coordinates": [
          86.8,
          20.2
        ]
      },
      "properties": {
        "station_id": "WX-ODI-PARADIP",
        "station_name": "Paradip Anchorage Station",
        "coastal_sector": "Odisha Coast",
        "significant_wave_height_m": 2.5,
        "swell_height_m": 2.2,
        "swell_period_s": 9.5,
        "swell_direction_deg": 170,
        "wind_speed_knots": 23.5,
        "wind_gust_knots": 32.0,
        "wind_direction_deg": 165,
        "mslp_hpa": 1004.5,
        "air_temp_c": 28.2,
        "sea_state": "Rough to Very Rough",
        "warning_level": "ORANGE",
        "advisory": "Low-pressure trough deepening in NW Bay of Bengal. Squally winds up to 35 knots expected."
      }
    },
    {
      "type": "Feature",
      "geometry": {
        "type": "Point",
        "coordinates": [
          88.25,
          21.05
        ]
      },
      "properties": {
        "station_id": "WX-WBE-SANDHEADS",
        "station_name": "Sandheads Light Vessel Station",
        "coastal_sector": "North Bay of Bengal",
        "significant_wave_height_m": 2.8,
        "swell_height_m": 2.5,
        "swell_period_s": 10.0,
        "swell_direction_deg": 175,
        "wind_speed_knots": 26.0,
        "wind_gust_knots": 36.0,
        "wind_direction_deg": 170,
        "mslp_hpa": 1003.8,
        "air_temp_c": 27.9,
        "sea_state": "Very Rough",
        "warning_level": "ORANGE",
        "advisory": "Severe weather alert: Fishermen are advised not to venture into deep sea for the next 48 hours."
      }
    }
  ]
}