{
  "type": "FeatureCollection",
  "name": "INCOIS_Potential_Fishing_Zones",
  "crs": {
    "type": "name",
    "properties": {
      "name": "urn:ogc:def:crs:OGC:1.3:CRS84"
    }
  },
  "features": [
    {
      "type": "Feature",
      "geometry": {
        "type": "Point",
        "coordinates": [
          70.15,
          20.72
        ]
      },
      "properties": {
        "advisory_id": "INCOIS-PFZ-GUJ-2026-081",
        "landing_center": "Veraval",
        "state": "Gujarat",
        "distance_km": 32.5,
        "bearing": "225\u00b0 South-West",
        "depth_m": 45,
        "target_species": "Yellowfin Tuna, Ribbonfish, Indian Mackerel",
        "sst": 28.3,
        "chlorophyll": 1.45,
        "confidence": 0.89
      }
    },
    {
      "type": "Feature",
      "geometry": {
        "type": "Point",
        "coordinates": [
          69.35,
          21.48
        ]
      },
      "properties": {
        "advisory_id": "INCOIS-PFZ-GUJ-2026-082",
        "landing_center": "Porbandar",
        "state": "Gujarat",
        "distance_km": 41.0,
        "bearing": "240\u00b0 West-South-West",
        "depth_m": 60,
        "target_species": "Skipjack Tuna, Pomfret",
        "sst": 27.9,
        "chlorophyll": 1.8,
        "confidence": 0.92
      }
    },
    {
      "type": "Feature",
      "geometry": {
        "type": "Point",
        "coordinates": [
          72.85,
          16.92
        ]
      },
      "properties": {
        "advisory_id": "INCOIS-PFZ-MAH-2026-064",
        "landing_center": "Ratnagiri (Mirkarwada)",
        "state": "Maharashtra",
        "distance_km": 28.0,
        "bearing": "260\u00b0 West",
        "depth_m": 52,
        "target_species": "King Seer, Sardines, Squid",
        "sst": 28.6,
        "chlorophyll": 1.15,
        "confidence": 0.85
      }
    },
    {
      "type": "Feature",
      "geometry": {
        "type": "Point",
        "coordinates": [
          75.82,
          9.85
        ]
      },
      "properties": {
        "advisory_id": "INCOIS-PFZ-KER-2026-112",
        "landing_center": "Kochi (Thoppumpady)",
        "state": "Kerala",
        "distance_km": 36.0,
        "bearing": "250\u00b0 West-South-West",
        "depth_m": 75,
        "target_species": "Indian Oil Sardine, Mackerel, Carangids",
        "sst": 27.2,
        "chlorophyll": 2.1,
        "confidence": 0.94
      }
    },
    {
      "type": "Feature",
      "geometry": {
        "type": "Point",
        "coordinates": [
          78.45,
          8.65
        ]
      },
      "properties": {
        "advisory_id": "INCOIS-PFZ-TAM-2026-095",
        "landing_center": "Tuticorin (Thoothukudi)",
        "state": "Tamil Nadu",
        "distance_km": 24.0,
        "bearing": "130\u00b0 South-East",
        "depth_m": 35,
        "target_species": "Seer Fish, Lethrinids, Tuna",
        "sst": 28.8,
        "chlorophyll": 1.3,
        "confidence": 0.88
      }
    },
    {
      "type": "Feature",
      "geometry": {
        "type": "Point",
        "coordinates": [
          83.52,
          17.58
        ]
      },
      "properties": {
        "advisory_id": "INCOIS-PFZ-AND-2026-073",
        "landing_center": "Visakhapatnam",
        "state": "Andhra Pradesh",
        "distance_km": 30.0,
        "bearing": "115\u00b0 East-South-East",
        "depth_m": 68,
        "target_species": "Yellowfin Tuna, Mahi Mahi, Barracuda",
        "sst": 29.2,
        "chlorophyll": 1.65,
        "confidence": 0.9
      }
    },
    {
      "type": "Feature",
      "geometry": {
        "type": "Point",
        "coordinates": [
          86.85,
          20.15
        ]
      },
      "properties": {
        "advisory_id": "INCOIS-PFZ-ODI-2026-051",
        "landing_center": "Paradip",
        "state": "Odisha",
        "distance_km": 26.0,
        "bearing": "145\u00b0 South-East",
        "depth_m": 42,
        "target_species": "Hilsa, Pomfret, Croakers",
        "sst": 29.7,
        "chlorophyll": 2.35,
        "confidence": 0.91
      }
    }
  ]
}